2024-205Q               
1 61908U 24205Q   25239.91008708  .00005801  00000+0  30057-3 0  9992
2 61908  97.4460 313.1203 0014566   3.3075 356.8252 15.16482276 43863
KOREASAT 6A             
1 61910U 24206A   25242.03586219 -.00000358  00000+0  00000+0 0  9995
2 61910   0.0147 134.5210 0001149 349.1174 343.7472  1.00273304  2924
STARLINK-32303          
1 61912U 24207A   25241.46016091  .00029795  00000+0  10876-2 0  9990
2 61912  43.0040 287.3016 0001729 281.2992  78.7666 15.27588135 45915
STARLINK-32434          
1 61913U 24207B   25241.81407485  .00029569  00000+0  10790-2 0  9995
2 61913  42.9949 285.6641 0002623 282.2956  77.7601 15.27601921 45379
STARLINK-32460          
1 61914U 24207C   25242.15114127  .00018350  00000+0  67447-3 0  9990
2 61914  42.9997 283.0270 0000998 275.4611  84.6127 15.27591133 45438
STARLINK-32559          
1 61915U 24207D   25242.16527885  .00037696  00000+0  13720-2 0  9999
2 61915  43.0027 283.1346 0000922 266.8464  93.2282 15.27589912 45437
STARLINK-32541          
1 61916U 24207E   25242.13795252  .00047075  00000+0  17084-2 0  9991
2 61916  42.9995 287.2539 0001240 257.4034 102.6679 15.27596944 45384
STARLINK-32544          
1 61917U 24207F   25241.84603671  .00033538  00000+0  12214-2 0  9991
2 61917  43.0034 285.0381 0005993 264.8666  95.1502 15.27601994 45387
STARLINK-32555          
1 61918U 24207G   25242.14952220  .00023203  00000+0  84978-3 0  9998
2 61918  43.0012 287.3414 0000876 278.1098  81.9654 15.27590126 45383
STARLINK-32547          
1 61919U 24207H   25241.82549819  .00032530  00000+0  11861-2 0  9992
2 61919  42.9954 284.8828 0000670 296.0761  64.0021 15.27589193 45377
STARLINK-32616          
1 61920U 24207J   25242.12175062  .00025318  00000+0  92555-3 0  9999
2 61920  43.0016 283.6681 0001709 252.5599 107.5066 15.27610617 45428
STARLINK-32605          
1 61921U 24207K   25242.10375726  .00017585  00000+0  64759-3 0  9999
2 61921  43.0026 283.5308 0000148 308.2541  51.8297 15.27551824 45428
STARLINK-32579          
1 61922U 24207L   25242.13410411  .00034375  00000+0  12519-2 0  9996
2 61922  43.0007 287.2246 0002593 278.9150  81.1408 15.27603940 45387
STARLINK-32537          
1 61923U 24207M   25242.15209356  .00024382  00000+0  89249-3 0  9995
2 61923  42.9996 287.3566 0000294 272.9103  87.1715 15.27585337 45383
STARLINK-32564          
1 61924U 24207N   25242.14566753  .00032605  00000+0  11886-2 0  9990
2 61924  42.9976 287.3060 0001305 280.6785  79.3920 15.27594951 45380
STARLINK-32536          
1 61925U 24207P   25241.82901116  .00035579  00000+0  12953-2 0  9990
2 61925  42.9997 289.2294 0001268 301.1532  58.9195 15.27602777 45339
STARLINK-32624          
1 61926U 24207Q   25241.42675069  .00027810  00000+0  10155-2 0  9993
2 61926  42.9941 287.0503 0001010 126.8818 233.2127 15.27607598 45320
STARLINK-32622          
1 61927U 24207R   25241.82677759  .00029657  00000+0  10824-2 0  9990
2 61927  43.0002 284.8912 0001171 278.0447  82.0272 15.27595767 45387
STARLINK-32620          
1 61928U 24207S   25242.11786506  .00038356  00000+0  13955-2 0  9999
2 61928  43.0002 283.6325 0004066 280.9331  79.1063 15.27590178 45424
STARLINK-32609          
1 61929U 24207T   25241.84862495  .00024531  00000+0  89763-3 0  9992
2 61929  43.0056 285.0560 0001714 286.7938  73.2726 15.27592970 45383
STARLINK-32567          
1 61930U 24207U   25242.12480817  .00040289  00000+0  14657-2 0  9997
2 61930  43.0013 280.2144 0001343 295.0172  65.0540 15.27577558 46057
STARLINK-32420          
1 61931U 24207V   25242.16142127  .00032105  00000+0  11707-2 0  9992
2 61931  43.0022 283.1023 0001373 264.8227  95.2468 15.27591170 45435
STARLINK-32354          
1 61932U 24207W   25242.14181170  .00037482  00000+0  13638-2 0  9990
2 61932  42.9986 287.2786 0001292 275.6253  84.4451 15.27601581 45871
STARLINK-32361          
1 61933U 24207X   25241.42432546  .00032965  00000+0  12010-2 0  9991
2 61933  42.9927 287.8724 0000909 123.1708 236.9231 15.27610848 45316
STARLINK-32500          
1 61935U 24207Z   25242.13025729  .00030068  00000+0  10978-2 0  9996
2 61935  43.0015 287.1883 0003396 285.7531  74.2946 15.27573628 45386
HAIYANG 4-01            
1 61936U 24208A   25242.10511875  .00000769  00000+0  12664-3 0  9997
2 61936  98.0076 248.8139 0001613  85.6553 274.4839 14.73311308 42582
STARLINK-11407 [DTC]    
1 61939U 24209A   25242.25307795  .00219248  00000+0  17679-2 0  9995
2 61939  53.1573 234.7548 0000953  69.1472 290.9648 15.69699861 46674
STARLINK-11337 [DTC]    
1 61940U 24209B   25242.24815236  .00402159  00000+0  31310-2 0  9993
2 61940  53.1575 234.7213 0002069 126.6030 233.5178 15.69979240 46657
STARLINK-11353 [DTC]    
1 61941U 24209C   25242.24324627  .00355281  00000+0  27828-2 0  9995
2 61941  53.1574 234.6894 0002220 119.1286 240.9954 15.69976508 46614
STARLINK-11320 [DTC]    
1 61942U 24209D   25242.23844024  .00368896  00000+0  28864-2 0  9990
2 61942  53.1577 235.3908 0002845 148.8403 211.2785 15.69960184 46600
STARLINK-11425 [DTC]    
1 61943U 24209E   25242.16986761  .00241465  00000+0  19323-2 0  9990
2 61943  53.1569 235.6714 0001872 110.1816 249.9404 15.69811628 46591
STARLINK-11422 [DTC]    
1 61944U 24209F   25242.16496181  .00260278  00000+0  20773-2 0  9997
2 61944  53.1580 235.6386 0001775 118.0182 242.1016 15.69817485 46596
STARLINK-11421 [DTC]    
1 61945U 24209G   25241.96904309  .00199346  00000+0  16096-2 0  9991
2 61945  53.1576 236.5472 0001322  88.2660 271.8509 15.69731071 46564
STARLINK-11410 [DTC]    
1 61946U 24209H   25241.96414452  .00225555  00000+0  18121-2 0  9990
2 61946  53.1576 236.5135 0002080  98.0306 262.0948 15.69767993 46605
STARLINK-11390 [DTC]    
1 61947U 24209J   25241.70455946  .00189342  00000+0  15290-2 0  9993
2 61947  53.1578 237.7381 0001285  89.0363 271.0802 15.69762333 46560
STARLINK-11414 [DTC]    
1 61948U 24209K   25242.25796201  .00251279  00000+0  20136-2 0  9991
2 61948  53.1569 234.7827 0001324  83.6071 276.5098 15.69748068 46659
STARLINK-11424 [DTC]    
1 61949U 24209L   25242.26286471  .00234890  00000+0  18813-2 0  9995
2 61949  53.1570 234.8150 0001173  91.0410 269.0743 15.69812590 46616
STARLINK-11423 [DTC]    
1 61950U 24209M   25242.27267685  .00259933  00000+0  20660-2 0  9992
2 61950  53.1570 234.8835 0001729 149.5295 210.5824 15.69917291 46654
STARLINK-11395 [DTC]    
1 61951U 24209N   25242.26776975  .00253565  00000+0  20253-2 0  9992
2 61951  53.1569 234.8470 0001498 107.6922 252.4260 15.69819040 46611
STARLINK-32572          
1 61952U 24209P   25241.49377683  .00030430  00000+0  10355-2 0  9996
2 61952  53.1578 314.9382 0000996  79.1170 280.9943 15.30196063 45472
STARLINK-32585          
1 61953U 24209Q   25241.92364507  .00058567  00000+0  19749-2 0  9993
2 61953  53.1605 313.3524 0001642  69.0725 291.0452 15.30185043 45539
STARLINK-32574          
1 61954U 24209R   25241.93420845  .00029366  00000+0  99960-3 0  9992
2 61954  53.1612 313.4158 0001418  87.1118 273.0045 15.30203374 45558
STARLINK-32583          
1 61955U 24209S   25241.91732585  .00030000  00000+0  10205-2 0  9999
2 61955  53.1604 313.3124 0001177  88.8382 271.2753 15.30212410 45552
STARLINK-32273          
1 61956U 24209T   25241.49905302  .00030973  00000+0  10541-2 0  9994
2 61956  53.1578 314.9672 0001184  84.4631 275.6505 15.30182041 45475
STARLINK-32359          
1 61957U 24209U   25241.91099206  .00020394  00000+0  69859-3 0  9992
2 61957  53.1589 313.2735 0001386  87.0833 273.0327 15.30210133 45554
STARLINK-32566          
1 61958U 24209V   25241.49588691  .00025775  00000+0  87998-3 0  9999
2 61958  53.1588 314.9521 0001229  78.5058 281.6081 15.30176364 45497
STARLINK-32499          
1 61959U 24210A   25242.10099375  .00030289  00000+0  11047-2 0  9994
2 61959  42.9995 181.4161 0001544 267.0930  92.9745 15.27609335 45627
STARLINK-32372          
1 61960U 24210B   25242.10870419  .00033475  00000+0  12193-2 0  9995
2 61960  42.9995 181.4713 0001466 249.1590 110.9104 15.27610246 45485
STARLINK-32452          
1 61961U 24210C   25241.98789426  .00056223  00000+0  20370-2 0  9990
2 61961  43.0004 175.3653 0001434 252.1471 107.9224 15.27582275 45671
STARLINK-32458          
1 61962U 24210D   25242.09393330  .00037563  00000+0  13665-2 0  9994
2 61962  42.9974 167.5114 0001579 252.6146 107.4533 15.27606254 45778
STARLINK-32487          
1 61963U 24210E   25242.13825544  .00041393  00000+0  15046-2 0  9998
2 61963  43.0001 181.6879 0001145 280.3466  79.7257 15.27595210 45615
STARLINK-32513          
1 61964U 24210F   25242.08236208 -.00007879  00000+0 -27736-3 0  9999
2 61964  42.9981 167.4236 0001159 280.4202  79.6519 15.27549127 45777
STARLINK-32514          
1 61965U 24210G   25242.12252029  .00047071  00000+0  17082-2 0  9992
2 61965  43.0000 174.6537 0001318 253.7862 106.2844 15.27597967 45692
STARLINK-32498          
1 61966U 24210H   25242.06823389  .00037093  00000+0  13497-2 0  9998
2 61966  42.9971 167.3158 0001417 255.2187 104.8507 15.27604114 45775
STARLINK-32518          
1 61967U 24210J   25242.08278853 -.00011637  00000+0 -41420-3 0  9997
2 61967  42.9992 175.0229 0001730 282.2447  77.8210 15.27565226 45557
STARLINK-32471          
1 61968U 24210K   25241.98146903  .00029944  00000+0  10928-2 0  9992
2 61968  42.9989 175.3181 0001434 257.4237 102.6454 15.27592954 45685
STARLINK-32450          
1 61969U 24210L   25242.11609403  .00046882  00000+0  17009-2 0  9995
2 61969  42.9989 174.6063 0001305 250.9737 109.0974 15.27608579 45563
STARLINK-32613          
1 61970U 24210M   25241.56779562  .00033009  00000+0  12028-2 0  9992
2 61970  42.9963 185.1562 0001084  77.1019 282.9954 15.27603146 45535
STARLINK-32610          
1 61971U 24210N   25241.95237028  .00038332  00000+0  13937-2 0  9996
2 61971  42.9982 182.8795 0000718 239.0847 120.9934 15.27616285 45593
